[{"OBJECT_NAME":"SAPPHIRE","OBJECT_ID":"2013-009C","EPOCH":"2026-03-09T22:57:28.647648","MEAN_MOTION":14.35209243,"ECCENTRICITY":0.00112275,"INCLINATION":98.4222,"RA_OF_ASC_NODE":250.7769,"ARG_OF_PERICENTER":178.7646,"MEAN_ANOMALY":181.357,"EPHEMERIS_TYPE":0,"CLASSIFICATION_TYPE":"U","NORAD_CAT_ID":39088,"ELEMENT_SET_NO":999,"REV_AT_EPOCH":68234,"BSTAR":9.3997997e-5,"MEAN_MOTION_DOT":2.26e-6,"MEAN_MOTION_DDOT":0},{"OBJECT_NAME":"COSMOS 468","OBJECT_ID":"1971-114A","EPOCH":"2026-03-09T23:22:07.917600","MEAN_MOTION":14.36706274,"ECCENTRICITY":0.00141799,"INCLINATION":74.0164,"RA_OF_ASC_NODE":64.2346,"ARG_OF_PERICENTER":141.7091,"MEAN_ANOMALY":218.5071,"EPHEMERIS_TYPE":0,"CLASSIFICATION_TYPE":"U","NORAD_CAT_ID":5705,"ELEMENT_SET_NO":999,"REV_AT_EPOCH":83696,"BSTAR":7.1012988e-5,"MEAN_MOTION_DOT":1.83e-6,"MEAN_MOTION_DDOT":0}]
